start=new Date('2022-03-06T00:00:00.000Z').valueOf();
sats=[{"SEMIMAJOR_AXIS":"6925.330","SITE":"AFETR","PERIOD":"95.592","OBJECT_TYPE":"PAYLOAD","ELEMENT_SET_NO":"999","TLE_LINE1":"1 47866U 21021G   22064.84400561  .00000952  00000-0  82820-4 0  9999","OBJECT_ID":"2021-021G","ECCENTRICITY":"0.00017710","TIME_SYSTEM":"UTC","CENTER_NAME":"EARTH","BSTAR":"0.00008282000000","REV_AT_EPOCH":"5556","MEAN_ELEMENT_THEORY":"SGP4","LAUNCH_DATE":"2021-03-14","NORAD_CAT_ID":"47866","REF_FRAME":"TEME","FILE":"3346512","MEAN_MOTION_DDOT":"0.0000000000000","EPHEMERIS_TYPE":"0","TLE_LINE2":"2 47866  53.0564   7.5703 0001771  61.4096 298.7071 15.06406099 55565","RA_OF_ASC_NODE":"7.5703","EPOCH":"2022-03-05T20:15:22.084704","MEAN_ANOMALY":"298.7071","INCLINATION":"53.0564","GP_ID":"198018904","APOAPSIS":"548.421","COUNTRY_CODE":"US","CLASSIFICATION_TYPE":"U","ARG_OF_PERICENTER":"61.4096","MEAN_MOTION":"15.06406099","DECAY_DATE":null,"PERIAPSIS":"545.968","OBJECT_NAME":"STARLINK-2320","RCS_SIZE":"LARGE","MEAN_MOTION_DOT":"0.00000952"},{"INCLINATION":"53.0561","MEAN_ANOMALY":"299.7222","TLE_LINE2":"2 47867  53.0561 359.0766 0001662  60.3933 299.7222 15.06404482 55455","EPHEMERIS_TYPE":"0","RA_OF_ASC_NODE":"359.0766","EPOCH":"2022-03-05T12:08:23.293824","MEAN_MOTION_DDOT":"0.0000000000000","NORAD_CAT_ID":"47867","LAUNCH_DATE":"2021-03-14","REF_FRAME":"TEME","FILE":"3346052","RCS_SIZE":"LARGE","OBJECT_NAME":"STARLINK-2321","MEAN_MOTION_DOT":"0.00001345","PERIAPSIS":"546.049","ARG_OF_PERICENTER":"60.3933","MEAN_MOTION":"15.06404482","DECAY_DATE":null,"GP_ID":"197981458","APOAPSIS":"548.351","COUNTRY_CODE":"US","CLASSIFICATION_TYPE":"U","TLE_LINE1":"1 47867U 21021H   22064.50582516  .00001345  00000-0  10919-3 0  9990","ELEMENT_SET_NO":"999","PERIOD":"95.592","OBJECT_TYPE":"PAYLOAD","SITE":"AFETR","SEMIMAJOR_AXIS":"6925.335","CENTER_NAME":"EARTH","TIME_SYSTEM":"UTC","REV_AT_EPOCH":"5545","BSTAR":"0.00010919000000","MEAN_ELEMENT_THEORY":"SGP4","ECCENTRICITY":"0.00016620","OBJECT_ID":"2021-021H"},{"CLASSIFICATION_TYPE":"U","COUNTRY_CODE":"US","GP_ID":"198017403","APOAPSIS":"548.267","DECAY_DATE":null,"ARG_OF_PERICENTER":"77.7979","MEAN_MOTION":"15.06411332","PERIAPSIS":"546.091","OBJECT_NAME":"STARLINK-2323","RCS_SIZE":"LARGE","MEAN_MOTION_DOT":"0.00001799","FILE":"3346512","REF_FRAME":"TEME","LAUNCH_DATE":"2021-03-14","NORAD_CAT_ID":"47868","MEAN_MOTION_DDOT":"0.0000000000000","EPOCH":"2022-03-05T21:32:19.838112","EPHEMERIS_TYPE":"0","TLE_LINE2":"2 47868  53.0556 307.3182 0001571  77.7979 282.3186 15.06411332 56268","RA_OF_ASC_NODE":"307.3182","MEAN_ANOMALY":"282.3186","INCLINATION":"53.0556","OBJECT_ID":"2021-021J","ECCENTRICITY":"0.00015710","MEAN_ELEMENT_THEORY":"SGP4","BSTAR":"0.00013957000000","REV_AT_EPOCH":"5626","CENTER_NAME":"EARTH","TIME_SYSTEM":"UTC","SITE":"AFETR","SEMIMAJOR_AXIS":"6925.314","OBJECT_TYPE":"PAYLOAD","PERIOD":"95.591","ELEMENT_SET_NO":"999","TLE_LINE1":"1 47868U 21021J   22064.89745183  .00001799  00000-0  13957-3 0  9992"},{"INCLINATION":"53.0561","MEAN_ANOMALY":"302.0012","RA_OF_ASC_NODE":"357.6247","TLE_LINE2":"2 47869  53.0561 357.6247 0001672  58.1139 302.0012 15.06403240 55657","EPHEMERIS_TYPE":"0","EPOCH":"2022-03-05T20:00:46.240128","MEAN_MOTION_DDOT":"0.0000000000000","LAUNCH_DATE":"2021-03-14","NORAD_CAT_ID":"47869","FILE":"3346512","REF_FRAME":"TEME","MEAN_MOTION_DOT":"0.00003152","RCS_SIZE":"LARGE","OBJECT_NAME":"STARLINK-2324","PERIAPSIS":"546.046","ARG_OF_PERICENTER":"58.1139","MEAN_MOTION":"15.06403240","DECAY_DATE":null,"GP_ID":"198018154","COUNTRY_CODE":"US","APOAPSIS":"548.362","CLASSIFICATION_TYPE":"U","TLE_LINE1":"1 47869U 21021K   22064.83386852  .00003152  00000-0  23036-3 0  9995","ELEMENT_SET_NO":"999","PERIOD":"95.592","OBJECT_TYPE":"PAYLOAD","SITE":"AFETR","SEMIMAJOR_AXIS":"6925.339","CENTER_NAME":"EARTH","TIME_SYSTEM":"UTC","BSTAR":"0.00023036000000","MEAN_ELEMENT_THEORY":"SGP4","REV_AT_EPOCH":"5565","ECCENTRICITY":"0.00016720","OBJECT_ID":"2021-021K"},{"TIME_SYSTEM":"UTC","CENTER_NAME":"EARTH","BSTAR":"0.00008482100000","MEAN_ELEMENT_THEORY":"SGP4","REV_AT_EPOCH":"5509","ECCENTRICITY":"0.00021040","OBJECT_ID":"2021-021L","TLE_LINE1":"1 47870U 21021L   22064.85183695  .00000982  00000-0  84821-4 0  9997","ELEMENT_SET_NO":"999","PERIOD":"95.592","OBJECT_TYPE":"PAYLOAD","SEMIMAJOR_AXIS":"6925.327","SITE":"AFETR","MEAN_MOTION_DOT":"0.00000982","RCS_SIZE":"LARGE","OBJECT_NAME":"STARLINK-2326","PERIAPSIS":"545.735","ARG_OF_PERICENTER":"53.0684","MEAN_MOTION":"15.06407002","DECAY_DATE":null,"COUNTRY_CODE":"US","GP_ID":"198018405","APOAPSIS":"548.649","CLASSIFICATION_TYPE":"U","INCLINATION":"53.0546","MEAN_ANOMALY":"307.0498","EPHEMERIS_TYPE":"0","TLE_LINE2":"2 47870  53.0546  22.5278 0002104  53.0684 307.0498 15.06407002 55095","RA_OF_ASC_NODE":"22.5278","EPOCH":"2022-03-05T20:26:38.712480","MEAN_MOTION_DDOT":"0.0000000000000","LAUNCH_DATE":"2021-03-14","NORAD_CAT_ID":"47870","FILE":"3346512","REF_FRAME":"TEME"},{"OBJECT_ID":"2021-021M","ECCENTRICITY":"0.00015230","TIME_SYSTEM":"UTC","CENTER_NAME":"EARTH","MEAN_ELEMENT_THEORY":"SGP4","BSTAR":"0.00047317000000","REV_AT_EPOCH":"5554","PERIOD":"95.591","OBJECT_TYPE":"PAYLOAD","SEMIMAJOR_AXIS":"6925.317","SITE":"AFETR","TLE_LINE1":"1 47871U 21021M   22064.83019173  .00006775  00000-0  47317-3 0  9999","ELEMENT_SET_NO":"999","ARG_OF_PERICENTER":"58.8948","MEAN_MOTION":"15.06410308","DECAY_DATE":null,"GP_ID":"198017653","COUNTRY_CODE":"US","APOAPSIS":"548.237","CLASSIFICATION_TYPE":"U","OBJECT_NAME":"STARLINK-2327","RCS_SIZE":"LARGE","MEAN_MOTION_DOT":"0.00006775","PERIAPSIS":"546.127","MEAN_MOTION_DDOT":"0.0000000000000","NORAD_CAT_ID":"47871","LAUNCH_DATE":"2021-03-14","REF_FRAME":"TEME","FILE":"3346512","INCLINATION":"53.0552","MEAN_ANOMALY":"301.2191","RA_OF_ASC_NODE":"357.6402","TLE_LINE2":"2 47871  53.0552 357.6402 0001523  58.8948 301.2191 15.06410308 55543","EPHEMERIS_TYPE":"0","EPOCH":"2022-03-05T19:55:28.565472"},{"FILE":"3346512","REF_FRAME":"TEME","LAUNCH_DATE":"2021-03-14","NORAD_CAT_ID":"47872","MEAN_MOTION_DDOT":"0.0000000000000","EPOCH":"2022-03-05T22:49:14.827584","EPHEMERIS_TYPE":"0","TLE_LINE2":"2 47872  53.0648 313.5179 0001934  23.8929 336.2157 15.24659894 56185","RA_OF_ASC_NODE":"313.5179","INCLINATION":"53.0648","MEAN_ANOMALY":"336.2157","CLASSIFICATION_TYPE":"U","COUNTRY_CODE":"US","GP_ID":"198017903","APOAPSIS":"493.138","DECAY_DATE":null,"MEAN_MOTION":"15.24659894","ARG_OF_PERICENTER":"23.8929","PERIAPSIS":"490.480","RCS_SIZE":"LARGE","OBJECT_NAME":"STARLINK-2328","MEAN_MOTION_DOT":"0.00188828","SITE":"AFETR","SEMIMAJOR_AXIS":"6869.944","OBJECT_TYPE":"PAYLOAD","PERIOD":"94.447","ELEMENT_SET_NO":"999","TLE_LINE1":"1 47872U 21021N   22064.95086606  .00188828  00000-0  73671-2 0  9999","OBJECT_ID":"2021-021N","ECCENTRICITY":"0.00019340","BSTAR":"0.00736710000000","MEAN_ELEMENT_THEORY":"SGP4","REV_AT_EPOCH":"5618","CENTER_NAME":"EARTH","TIME_SYSTEM":"UTC"},{"REF_FRAME":"TEME","FILE":"3346512","LAUNCH_DATE":"2021-03-14","NORAD_CAT_ID":"47873","MEAN_MOTION_DDOT":"0.0000000000000","EPOCH":"2022-03-05T19:28:55.333056","TLE_LINE2":"2 47873  53.0577 357.7073 0001627  57.2756 302.8390 15.06414594 55530","RA_OF_ASC_NODE":"357.7073","EPHEMERIS_TYPE":"0","MEAN_ANOMALY":"302.8390","INCLINATION":"53.0577","CLASSIFICATION_TYPE":"U","APOAPSIS":"548.296","GP_ID":"198018654","COUNTRY_CODE":"US","DECAY_DATE":null,"MEAN_MOTION":"15.06414594","ARG_OF_PERICENTER":"57.2756","PERIAPSIS":"546.042","OBJECT_NAME":"STARLINK-2329","RCS_SIZE":"LARGE","MEAN_MOTION_DOT":"0.00003247","SITE":"AFETR","SEMIMAJOR_AXIS":"6925.304","OBJECT_TYPE":"PAYLOAD","PERIOD":"95.591","ELEMENT_SET_NO":"999","TLE_LINE1":"1 47873U 21021P   22064.81175154  .00003247  00000-0  23666-3 0  9993","OBJECT_ID":"2021-021P","ECCENTRICITY":"0.00016270","BSTAR":"0.00023666000000","REV_AT_EPOCH":"5553","MEAN_ELEMENT_THEORY":"SGP4","CENTER_NAME":"EARTH","TIME_SYSTEM":"UTC"},{"NORAD_CAT_ID":"47874","LAUNCH_DATE":"2021-03-14","FILE":"3346512","REF_FRAME":"TEME","MEAN_MOTION_DDOT":"0.0000000000000","TLE_LINE2":"2 47874  53.0530 312.0659 0001707  60.1879 299.9279 15.06408046 56192","EPHEMERIS_TYPE":"0","RA_OF_ASC_NODE":"312.0659","EPOCH":"2022-03-05T22:52:35.238432","MEAN_ANOMALY":"299.9279","INCLINATION":"53.0530","GP_ID":"198018905","APOAPSIS":"548.371","COUNTRY_CODE":"US","CLASSIFICATION_TYPE":"U","MEAN_MOTION":"15.06408046","ARG_OF_PERICENTER":"60.1879","DECAY_DATE":null,"PERIAPSIS":"546.007","RCS_SIZE":"LARGE","MEAN_MOTION_DOT":"0.00004116","OBJECT_NAME":"STARLINK-2330","SITE":"AFETR","SEMIMAJOR_AXIS":"6925.324","PERIOD":"95.592","OBJECT_TYPE":"PAYLOAD","ELEMENT_SET_NO":"999","TLE_LINE1":"1 47874U 21021Q   22064.95318563  .00004116  00000-0  29498-3 0  9997","OBJECT_ID":"2021-021Q","ECCENTRICITY":"0.00017070","CENTER_NAME":"EARTH","TIME_SYSTEM":"UTC","REV_AT_EPOCH":"5619","BSTAR":"0.00029498000000","MEAN_ELEMENT_THEORY":"SGP4"},{"RCS_SIZE":"LARGE","OBJECT_NAME":"STARLINK-2331","MEAN_MOTION_DOT":"0.00002159","PERIAPSIS":"546.057","ARG_OF_PERICENTER":"56.7091","MEAN_MOTION":"15.06404144","DECAY_DATE":null,"COUNTRY_CODE":"US","GP_ID":"198017154","APOAPSIS":"548.344","CLASSIFICATION_TYPE":"U","INCLINATION":"53.0560","MEAN_ANOMALY":"303.4056","RA_OF_ASC_NODE":"7.4577","TLE_LINE2":"2 47875  53.0560   7.4577 0001651  56.7091 303.4056 15.06404144 55463","EPHEMERIS_TYPE":"0","EPOCH":"2022-03-05T20:52:31.321344","MEAN_MOTION_DDOT":"0.0000000000000","LAUNCH_DATE":"2021-03-14","NORAD_CAT_ID":"47875","FILE":"3346512","REF_FRAME":"TEME","CENTER_NAME":"EARTH","TIME_SYSTEM":"UTC","REV_AT_EPOCH":"5546","BSTAR":"0.00016376000000","MEAN_ELEMENT_THEORY":"SGP4","OBJECT_ID":"2021-021R","ECCENTRICITY":"0.00016510","TLE_LINE1":"1 47875U 21021R   22064.86980696  .00002159  00000-0  16376-3 0  9996","ELEMENT_SET_NO":"999","PERIOD":"95.592","OBJECT_TYPE":"PAYLOAD","SITE":"AFETR","SEMIMAJOR_AXIS":"6925.336"}];
